#dP2019 10 15  0  0  0.00000000      96 __u+U ITR00 FIT  IAC
## 2075 172800.00000000   900.00000000 58771 0.0000000000000
+  115   C01C03C04C05C06C07C08C09C10C11C12C13C14C16C19C20C21
+        C22C23C24C25C26C27C28C29C30C32C33C34C35C36C37E01E02
+        E03E04E05E07E08E09E11E12E13E14E15E18E19E21E24E25E26
+        E27E30E31E33E36G01G02G03G05G06G07G08G09G10G11G12G13
+        G14G15G16G17G18G19G20G21G22G23G24G25G26G27G28G29G30
+        G31G32J01J02J03J07R01R02R03R05R06R07R08R09R11R12R13
+        R14R15R16R17R18R19R20R21R22R23R24R26R27  0  0  0  0
++        14 13 13 13  9  8  8  8  8  8  8  8  8  8  7  8  8
++         8  8  8  8  8  7  8  8  7  8  9  9  9  8  8  5  4
++         5  5  5  5  5  5  5  5  5  5  5  5  5  5  5  4  5
++         5  5  5  5  5  3  3  3  3  3  3  3  3  3  3  3  3
++         3  3  3  3  4  3  3  3  3  3  4  3  3  3  3  3  3
++         3  3  9  8  9  0  6  5  5  5 11  5  5  5  5  6  6
++         5  5  6  5  5  6  6  5  5  5  6  8  0  0  0  0  0
%c M  cc GPS ccc cccc cccc cccc cccc ccccc ccccc ccccc ccccc
%c cc cc ccc ccc cccc cccc cccc cccc ccccc ccccc ccccc ccccc
%f  0.0000000  0.000000000  0.00000000000  0.000000000000000
%f  0.0000000  0.000000000  0.00000000000  0.000000000000000
%i    0    0    0    0      0      0      0      0         0
%i    0    0    0    0      0      0      0      0         0
/* INFORMATION & ANALYSIS CENTER (IAC)            RAPID DATA
/* S/V CLOCKS ARE ALIGNED TO GNSS TIME                      
/* G:C1WC2W R:C1PC2P E:C1XC5X C:C2IC6I J:C1CC2S             
/* PCV:IGS14_2070 OL/AL:FES2004  NONE     YN ORB:CoN CLK:CoN
*  2019 10 15 16  0  0.00000000
PC01 -32275.373429  27139.265982    606.389487 999999.999999
PC03 -14752.104905  39477.881470   -457.211154 999999.999999
PC04 -39606.018367  14509.351118    208.544347 999999.999999
PC05  21808.243405  36040.204375  -1152.500132 999999.999999
PC06 -14720.740644  38033.317809  -9502.364679 999999.999999
PC07 -10360.317440  24598.946557  32878.212224 999999.999999
PC08 -25926.769159  24091.208409 -23093.603292 999999.999999
PC09  -5541.870412  41161.865328   6312.029813 999999.999999
PC10   4570.260838  31226.497983  28326.850179 999999.999999
PC11  -7587.717027 -15289.791292  22118.412591 999999.999999
PC12  13778.301873 -24181.435081   1249.357944 999999.999999
PC13 -10474.574795  26072.038076 -31476.362199 999999.999999
PC14 -15880.900928 -22542.181911  -4070.580945 999999.999999
PC16 -12055.962946  39778.563272  -6399.545670 999999.999999
PC19  19050.138435  16181.594909  12441.360094 999999.999999
PC20  10693.510124  25400.698695  -4469.590104 999999.999999
PC21   4341.449305 -19748.571564  19233.544912 999999.999999
PC22  16473.477643  -2548.192993  22381.506653 999999.999999
PC23 -26698.083976   4139.716582   6992.639801 999999.999999
PC24  -7812.927197 -15643.225942 -21746.940298 999999.999999
PC25 -24887.466860  -7361.419425 -10273.736372 999999.999999
PC26  12364.271686 -14389.208365 -20453.782755 999999.999999
PC27 -14182.379378  23999.877055  -1127.202647 999999.999999
PC28 -20044.861393  11780.989474  15447.487831 999999.999999
PC29  14449.442103   6729.930602 -22909.424335 999999.999999
PC30    615.211483  22243.878976 -16830.613026 999999.999999
PC32  -4180.446876  19807.945418 -19203.898732 999999.999999
PC33 -19113.542588 -16129.736595 -12362.449787 999999.999999
PC34   -805.333294 -22114.595606  17008.436751 999999.999999
PC35  19672.978190 -12355.550542 -15477.147532 999999.999999
PC36  24602.592718   8060.143438  10462.077904 999999.999999
PC37 -13278.664227  13933.240772  20237.006092 999999.999999
PE01 -26964.728426  -4092.126077  11507.182832 999999.999999
PE02  26945.374860   4052.141798 -11548.652383 999999.999999
PE03  17141.245263   -592.801084  24121.023655 999999.999999
PE04 -10714.996531  21166.576875 -17702.823577 999999.999999
PE05  13579.961302  20513.920250  16461.136109 999999.999999
PE07  -2100.217773 -29509.084628    778.025885 999999.999999
PE08  10369.324940 -21350.300114  17675.486233 999999.999999
PE09   2364.993615  29506.515556   -724.181281 999999.999999
PE11  -4867.578870  20494.765211 -20799.672998 999999.999999
PE12 -21649.919591  19583.768866  -4871.246670 999999.999999
PE13   4971.021353 -20508.789057  20757.550772 999999.999999
PE14  21451.635121  -7023.523918 -22667.416296 999999.999999
PE15  21379.545134 -19795.214883   5200.305810 999999.999999
PE18 -15245.171170  14977.413162  12266.698032 999999.999999
PE19 -17124.324048  -1813.935131 -24076.286478 999999.999999
PE21 -23640.121081 -16229.420310  -7324.904616 999999.999999
PE24   6351.076302  18992.114052  21790.861577 999999.999999
PE25  23585.857436  16281.267192   7430.480171 999999.999999
PE26 -14568.652810  -9303.463204  24032.462222 999999.999999
PE27  -6364.199955 -18897.181151 -21863.905354 999999.999999
PE30  14639.613869 -10449.772835 -23506.613174 999999.999999
PE31 -14587.400815  10479.470736  23541.121110 999999.999999
PE33 -25293.340267   7470.096696  13448.036630 999999.999999
PE36  14380.718626   9203.346830 -24175.766107 999999.999999
PG01    624.704577  15252.554950 -21905.355085 999999.999999
PG02  19341.812906 -15253.763025  10375.934751 999999.999999
PG03  10522.632686  21244.743060 -12123.244516 999999.999999
PG05   8276.102636 -13098.641142  21422.479201 999999.999999
PG06  25738.817430  -5714.584138  -3286.222633 999999.999999
PG07  17357.708475   8633.748134  18641.615607 999999.999999
PG08  -5173.412700  25926.405766   -469.350335 999999.999999
PG09   9442.676008  17067.593883  17973.322001 999999.999999
PG10 -21962.942843  -8467.923773 -12452.814217 999999.999999
PG11   -916.955606  20059.791299 -18039.691655 999999.999999
PG12  -5266.745054 -20975.267724 -15740.301546 999999.999999
PG13  13006.443628 -22041.197021   6852.154327 999999.999999
PG14 -16197.239955  11465.612489 -17238.701647 999999.999999
PG15   2058.326750 -26229.943400  -1641.307362 999999.999999
PG16 -10794.551008   9949.762411  21940.100259 999999.999999
PG17  15083.412822  -1033.144284 -21408.349554 999999.999999
PG18  -8278.029035  17255.231894 -18882.152691 999999.999999
PG19  16460.882746  -8208.497013 -19465.771477 999999.999999
PG20 -22666.306288 -13806.789077  -2639.352989 999999.999999
PG21 -20195.016911  -5383.891358  17064.729669 999999.999999
PG22   4227.580974  19701.326388 -17133.236045 999999.999999
PG23   2787.971631  24189.238032  10472.300709 999999.999999
PG24   1248.243683 -16683.245134 -20729.105240 999999.999999
PG25 -17318.147664 -19950.439273  -4072.690284 999999.999999
PG26 -18106.206129   2540.532539  19314.809152 999999.999999
PG27 -12185.127161  20675.795392  10921.815579 999999.999999
PG28  20561.711700  10084.163473 -12749.833164 999999.999999
PG29  -6332.083830 -19018.158407  17381.208493 999999.999999
PG30  24566.478243   1221.296716  10306.485874 999999.999999
PG31 -25995.695171   6471.085620  -1097.903709 999999.999999
PG32 -15691.894953   1528.818995 -21296.868382 999999.999999
PJ01 -19749.068890  23060.807685 -24693.741442 999999.999999
PJ02 -28678.211245  21905.679049  26642.095504 999999.999999
PJ03 -30879.261706  26221.504650  16757.465696 999999.999999
PJ07      0.000000      0.000000      0.000000 999999.999999
PR01  10277.182521  22941.925798   4366.347855 999999.999999
PR02  12786.631463   7401.374688  20810.823120 999999.999999
PR03   7248.306461 -11171.181542  21799.722846 999999.999999
PR05 -10754.433789 -22072.496263  -6953.098674 999999.999999
PR06 -12998.814086  -6216.820832 -21071.201472 999999.999999
PR07  -6994.560136  11606.896852 -21572.865457 999999.999999
PR08   2458.467753  23156.385146 -10351.900377 999999.999999
PR09 -24920.740661  -2937.820326   4393.652135 999999.999999
PR11    173.398239  11328.693434  22878.145256 999999.999999
PR12  17082.359147  10963.473823  15471.216404 999999.999999
PR13  25127.025956   4087.893740  -1677.581797 999999.999999
PR14  18126.294225  -4694.278635 -17311.705588 999999.999999
PR15    828.294688 -10958.322044 -22991.122478 999999.999999
PR16 -17585.634243 -10717.954198 -15144.675810 999999.999999
PR17  18421.323027 -16692.084029  -5601.373368 999999.999999
PR18  11150.505483 -19994.356609  11311.456225 999999.999999
PR19  -1667.956238 -12632.387483  22094.106020 999999.999999
PR20 -15439.338271   3314.620998  20026.444535 999999.999999
PR21 -18330.277824  17091.140539   4850.260330 999999.999999
PR22  -9125.356574  19292.457728 -13879.729802 999999.999999
PR23   6652.504363   8200.162459 -23228.501840 999999.999999
PR24  16349.470371  -5406.088278 -18845.982519 999999.999999
PR26 -13609.552550    577.420965  21584.538915 999999.999999
PR27      0.000000      0.000000      0.000000 999999.999999
EOF
